GSAT0101 (PRN E11)      
1 37846U 11060A   23308.88816253 -.00000101  00000+0  00000+0 0  9994
2 37846  57.1148   7.6330 0000906 314.9138  45.1331  1.70476018 74966
GSAT0102 (PRN E12)      
1 37847U 11060B   23308.36179326 -.00000102  00000+0  00000+0 0  9992
2 37847  57.1156   7.6473 0002939 298.4648 144.6805  1.70475406 74831
GSAT0103 (PRN E19)      
1 38857U 12055A   23308.92726375  .00000063  00000+0  00000+0 0  9998
2 38857  55.3089 127.7986 0002101 237.9546 122.0602  1.70473763 68727
GSAT0104 (PRN E20)      
1 38858U 12055B   23308.31004494  .00000058  00000+0  00000+0 0  9997
2 38858  55.3087 127.8171 0001441 144.5061 215.5370  1.70473990 68715
GSAT0201 (PRN E18)      
1 40128U 14050A   23309.32732675 -.00000064  00000+0  00000+0 0  9996
2 40128  49.8799 312.0854 1606799 142.7180 229.6173  1.85519630 60607
GSAT0202 (PRN E14)      
1 40129U 14050B   23310.12547863 -.00000063  00000+0  00000+0 0  9999
2 40129  49.8978 311.1263 1604887 143.5587 228.5367  1.85520336 62786
GSAT0203 (PRN E26)      
1 40544U 15017A   23308.66746849 -.00000101  00000+0  00000+0 0  9998
2 40544  56.9107   7.6035 0003955 243.5031 116.5103  1.70476245 52918
GSAT0204 (PRN E22)      
1 40545U 15017B   23308.33470377 -.00000102  00000+0  00000+0 0  9994
2 40545  56.9164   7.6271 0004935 235.5042 124.5031  1.70475787 15958
GSAT0205 (PRN E24)      
1 40889U 15045A   23309.27603425 -.00000025  00000+0  00000+0 0  9996
2 40889  55.3315 247.9864 0005010  21.9999 338.0161  1.70472981 50734
GSAT0206 (PRN E30)      
1 40890U 15045B   23310.08326020 -.00000026  00000+0  00000+0 0  9993
2 40890  55.3292 247.9597 0003077 358.2937   1.6987  1.70473019 50778
GSAT0209 (PRN E09)      
1 41174U 15079A   23307.32161274  .00000051  00000+0  00000+0 0  9994
2 41174  55.3260 127.5502 0001808 347.1431  12.8834  1.70474403 48460
GSAT0208 (PRN E08)      
1 41175U 15079B   23309.88759846  .00000070  00000+0  00000+0 0  9997
2 41175  55.3257 127.4778 0001167   4.7781 355.2605  1.70474366 48922
GSAT0211 (PRN E02)      
1 41549U 16030A   23309.42236135 -.00000025  00000+0  00000+0 0  9992
2 41549  55.4776 247.9649 0004092 330.7904  29.1811  1.70473134 46395
GSAT0210 (PRN E01)      
1 41550U 16030B   23309.12721376 -.00000025  00000+0  00000+0 0  9997
2 41550  55.4768 247.9741 0003274 298.0960  61.8656  1.70473411 46387
GSAT0207 (PRN E07)      
1 41859U 16069A   23309.96175415  .00000070  00000+0  00000+0 0  9999
2 41859  54.9908 127.5341 0001554 308.2961  51.7278  1.70474401 43130
GSAT0212 (PRN E03)      
1 41860U 16069B   23310.40291783  .00000073  00000+0  00000+0 0  9992
2 41860  54.9883 127.5187 0001640  35.2484 324.8016  1.70474678 43393
GSAT0213 (PRN E04)      
1 41861U 16069C   23309.59630318  .00000067  00000+0  00000+0 0  9995
2 41861  54.9903 127.5471 0001799 253.5158 106.5012  1.70473269 43241
GSAT0214 (PRN E05)      
1 41862U 16069D   23308.57040979  .00000059  00000+0  00000+0 0  9992
2 41862  54.9881 127.5696 0000853 241.7913 118.2338  1.70473214 43357
GSAT0215 (PRN E21)      
1 43055U 17079A   23309.05890002 -.00000025  00000+0  00000+0 0  9998
2 43055  55.4537 247.8000 0002705 293.4244  66.5421  1.70473777 36704
GSAT0216 (PRN E25)      
1 43056U 17079B   23309.93735364 -.00000026  00000+0  00000+0 0  9996
2 43056  55.4538 247.7756 0004272 292.1753  67.7733  1.70473914 36730
GSAT0217 (PRN E27)      
1 43057U 17079C   23310.15772868 -.00000026  00000+0  00000+0 0  9993
2 43057  55.4517 247.7686 0004055 304.8158  55.1396  1.70473898 36725
GSAT0218 (PRN E31)      
1 43058U 17079D   23309.20461047 -.00000025  00000+0  00000+0 0  9991
2 43058  55.4526 247.7923 0004658 286.8217  73.1221  1.70473896 36730
GSAT0221 (PRN E15)      
1 43564U 18060A   23309.69094638 -.00000098  00000+0  00000+0 0  9995
2 43564  57.2907   7.5196 0004982 263.6990  96.2993  1.70476214 32892
GSAT0222 (PRN E33)      
1 43565U 18060B   23307.56277767 -.00000103  00000+0  00000+0 0  9993
2 43565  57.2939   7.5782 0004523 230.1452 129.8693  1.70476094 32900
GSAT0219 (PRN E36)      
1 43566U 18060C   23310.13136231 -.00000096  00000+0  00000+0 0  9992
2 43566  57.2932   7.5109 0003981 267.1166  92.8934  1.70476272 32923
GSAT0220 (PRN E13)      
1 43567U 18060D   23308.59206938 -.00000101  00000+0  00000+0 0  9999
2 43567  57.2926   7.5525 0004386 263.7167  96.2877  1.70476279 32877
GSAT0223 (PRN E34)      
1 49809U 21116A   23308.43475188 -.00000102  00000+0  00000+0 0  9999
2 49809  57.2844   7.4524 0003791 217.7011 136.0700  1.70476424 11883
GSAT0224 (PRN E10)      
1 49810U 21116B   23309.40784795 -.00000099  00000+0  00000+0 0  9991
2 49810  57.2854   7.4245 0002857 212.9456 130.5285  1.70476483 11925
